IRIDIUM 921 [-]         
1 24873U 97034E   23364.51584052  .00016741  00000+0  58420-3 0  9995
2 24873  86.3849  11.3776 0006058 142.8758 217.2910 15.29473788449174
IRIDIUM 26 [-]          
1 24903U 97043A   23364.47517071  .00000660  00000+0  21996-3 0  9992
2 24903  86.3964 334.9771 0002435  86.7339 273.4137 14.36138566379975
IRIDIUM 22 [-]          
1 24907U 97043E   23364.46991068  .00000591  00000+0  20066-3 0  9997
2 24907  86.3967 338.0809 0002226  90.0728 270.0723 14.35040260380065
DUMMY MASS 1 [-]        
1 24925U 97048A   23364.57763428  .00000551  00000+0  59875-4 0  9998
2 24925  86.3340  22.3294 0004891 226.1930 133.8890 14.85981080425710
DUMMY MASS 2 [-]        
1 24926U 97048B   23364.58679368  .00000545  00000+0  59646-4 0  9998
2 24926  86.3340  23.8382 0005411 243.3699 116.6971 14.85741707425503
IRIDIUM 29 [-]          
1 24944U 97051A   23364.52646982  .00000626  00000+0  21085-3 0  9997
2 24944  86.3957   8.0068 0002108  97.2733 262.8703 14.35498547376764
IRIDIUM 33 [-]          
1 24946U 97051C   23364.53732096  .00000378  00000+0  12784-3 0  9992
2 24946  86.3872   7.2690 0008975  36.1309 324.0492 14.34211855376099
IRIDIUM 28 [-]          
1 24948U 97051E   23364.50294211  .00000555  00000+0  18288-3 0  9995
2 24948  86.3963   5.8405 0002531  83.8369 276.3117 14.36438601377060
